start=new Date('2022-07-26T00:00:00.000Z').valueOf();
sats=[{"PERIOD":"95.437","COUNTRY_CODE":"US","BSTAR":"0.00012791000000","SITE":"AFWTR","LAUNCH_DATE":"2021-12-18","CENTER_NAME":"EARTH","REF_FRAME":"TEME","NORAD_CAT_ID":"50176","ECCENTRICITY":"0.00020770","RCS_SIZE":"LARGE","INCLINATION":"53.2167","PERIAPSIS":"538.293","EPOCH":"2022-07-25T20:58:13.660608","MEAN_MOTION":"15.08844938","REV_AT_EPOCH":"3694","OBJECT_ID":"2021-125W","GP_ID":"208864731","MEAN_MOTION_DDOT":"0.0000000000000","TLE_LINE1":"1 50176U 21125W   22206.87376922  .00001748  00000-0  12791-3 0  9999","ARG_OF_PERICENTER":"60.9200","OBJECT_NAME":"STARLINK-3293","TIME_SYSTEM":"UTC","MEAN_ANOMALY":"299.2000","MEAN_ELEMENT_THEORY":"SGP4","RA_OF_ASC_NODE":"67.4855","MEAN_MOTION_DOT":"0.00001748","TLE_LINE2":"2 50176  53.2167  67.4855 0002077  60.9200 299.2000 15.08844938 36947","OBJECT_TYPE":"PAYLOAD","FILE":"3521711","ELEMENT_SET_NO":"999","APOAPSIS":"541.167","CLASSIFICATION_TYPE":"U","DECAY_DATE":null,"SEMIMAJOR_AXIS":"6917.865","EPHEMERIS_TYPE":"0"},{"MEAN_ANOMALY":"301.6694","MEAN_ELEMENT_THEORY":"SGP4","RA_OF_ASC_NODE":"67.4359","MEAN_MOTION_DOT":"0.00001764","OBJECT_TYPE":"PAYLOAD","TLE_LINE2":"2 50177  53.2178  67.4359 0001966  58.4490 301.6694 15.08845203 36907","FILE":"3521711","APOAPSIS":"541.090","ELEMENT_SET_NO":"999","CLASSIFICATION_TYPE":"U","DECAY_DATE":null,"SEMIMAJOR_AXIS":"6917.864","EPHEMERIS_TYPE":"0","MEAN_MOTION_DDOT":"0.0000000000000","TLE_LINE1":"1 50177U 21125X   22206.88480894  .00001764  00000-0  12890-3 0  9993","OBJECT_NAME":"STARLINK-3282","ARG_OF_PERICENTER":"58.4490","TIME_SYSTEM":"UTC","REF_FRAME":"TEME","NORAD_CAT_ID":"50177","ECCENTRICITY":"0.00019660","RCS_SIZE":"LARGE","INCLINATION":"53.2178","PERIAPSIS":"538.369","EPOCH":"2022-07-25T21:14:07.492416","REV_AT_EPOCH":"3690","MEAN_MOTION":"15.08845203","OBJECT_ID":"2021-125X","GP_ID":"208863479","PERIOD":"95.437","COUNTRY_CODE":"US","BSTAR":"0.00012890000000","SITE":"AFWTR","LAUNCH_DATE":"2021-12-18","CENTER_NAME":"EARTH"},{"SITE":"AFWTR","BSTAR":"-0.00032528000000","CENTER_NAME":"EARTH","LAUNCH_DATE":"2021-12-18","PERIOD":"95.438","COUNTRY_CODE":"US","MEAN_MOTION":"15.08829186","REV_AT_EPOCH":"3685","OBJECT_ID":"2021-125Y","EPOCH":"2022-07-25T07:32:44.877984","GP_ID":"208832631","RCS_SIZE":"LARGE","ECCENTRICITY":"0.00022300","REF_FRAME":"TEME","NORAD_CAT_ID":"50178","PERIAPSIS":"538.236","INCLINATION":"53.2173","TLE_LINE1":"1 50178U 21125Y   22206.31440831 -.00005460  00000-0 -32528-3 0  9998","TIME_SYSTEM":"UTC","OBJECT_NAME":"STARLINK-3284","ARG_OF_PERICENTER":"59.0556","MEAN_MOTION_DDOT":"0.0000000000000","APOAPSIS":"541.321","ELEMENT_SET_NO":"999","CLASSIFICATION_TYPE":"U","FILE":"3521435","DECAY_DATE":null,"SEMIMAJOR_AXIS":"6917.913","EPHEMERIS_TYPE":"0","MEAN_ANOMALY":"301.0655","OBJECT_TYPE":"PAYLOAD","TLE_LINE2":"2 50178  53.2173  69.9766 0002230  59.0556 301.0655 15.08829186 36854","RA_OF_ASC_NODE":"69.9766","MEAN_ELEMENT_THEORY":"SGP4","MEAN_MOTION_DOT":"-0.00005460"},{"REF_FRAME":"TEME","NORAD_CAT_ID":"50179","RCS_SIZE":"LARGE","ECCENTRICITY":"0.00018970","INCLINATION":"53.2188","PERIAPSIS":"538.428","EPOCH":"2022-07-25T21:03:31.701600","MEAN_MOTION":"15.08841521","REV_AT_EPOCH":"3690","OBJECT_ID":"2021-125Z","GP_ID":"208864481","PERIOD":"95.437","COUNTRY_CODE":"US","SITE":"AFWTR","BSTAR":"0.00006978900000","LAUNCH_DATE":"2021-12-18","CENTER_NAME":"EARTH","MEAN_ANOMALY":"305.1917","RA_OF_ASC_NODE":"67.4646","MEAN_ELEMENT_THEORY":"SGP4","MEAN_MOTION_DOT":"0.00000823","TLE_LINE2":"2 50179  53.2188  67.4646 0001897  54.9253 305.1917 15.08841521 36906","OBJECT_TYPE":"PAYLOAD","FILE":"3521711","APOAPSIS":"541.053","ELEMENT_SET_NO":"999","CLASSIFICATION_TYPE":"U","DECAY_DATE":null,"EPHEMERIS_TYPE":"0","SEMIMAJOR_AXIS":"6917.876","MEAN_MOTION_DDOT":"0.0000000000000","TLE_LINE1":"1 50179U 21125Z   22206.87745025  .00000823  00000-0  69789-4 0  9999","ARG_OF_PERICENTER":"54.9253","OBJECT_NAME":"STARLINK-3283","TIME_SYSTEM":"UTC"},{"APOAPSIS":"541.376","ELEMENT_SET_NO":"999","CLASSIFICATION_TYPE":"U","FILE":"3521435","EPHEMERIS_TYPE":"0","SEMIMAJOR_AXIS":"6917.875","DECAY_DATE":null,"MEAN_ANOMALY":"292.9475","TLE_LINE2":"2 50180  53.2185  69.9110 0002365  67.1767 292.9475 15.08841765 36862","OBJECT_TYPE":"PAYLOAD","MEAN_MOTION_DOT":"0.00000398","MEAN_ELEMENT_THEORY":"SGP4","RA_OF_ASC_NODE":"69.9110","TLE_LINE1":"1 50180U 21125AA  22206.33281053  .00000398  00000-0  43127-4 0  9993","TIME_SYSTEM":"UTC","OBJECT_NAME":"STARLINK-3265","ARG_OF_PERICENTER":"67.1767","MEAN_MOTION_DDOT":"0.0000000000000","OBJECT_ID":"2021-125AA","REV_AT_EPOCH":"3686","MEAN_MOTION":"15.08841765","EPOCH":"2022-07-25T07:59:14.829792","GP_ID":"208833623","RCS_SIZE":"LARGE","ECCENTRICITY":"0.00023650","NORAD_CAT_ID":"50180","REF_FRAME":"TEME","PERIAPSIS":"538.104","INCLINATION":"53.2185","BSTAR":"0.00004312700000","SITE":"AFWTR","CENTER_NAME":"EARTH","LAUNCH_DATE":"2021-12-18","PERIOD":"95.437","COUNTRY_CODE":"US"},{"PERIOD":"95.437","COUNTRY_CODE":"US","SITE":"AFWTR","BSTAR":"0.00014851000000","CENTER_NAME":"EARTH","LAUNCH_DATE":"2021-12-18","ECCENTRICITY":"0.00020420","RCS_SIZE":"LARGE","REF_FRAME":"TEME","NORAD_CAT_ID":"50181","PERIAPSIS":"538.308","INCLINATION":"53.2185","MEAN_MOTION":"15.08847995","REV_AT_EPOCH":"3682","OBJECT_ID":"2021-125AB","EPOCH":"2022-07-25T07:48:39.553920","GP_ID":"208831882","MEAN_MOTION_DDOT":"0.0000000000000","TLE_LINE1":"1 50181U 21125AB  22206.32545780  .00002077  00000-0  14851-3 0  9990","TIME_SYSTEM":"UTC","OBJECT_NAME":"STARLINK-3285","ARG_OF_PERICENTER":"56.1253","MEAN_ANOMALY":"303.9933","OBJECT_TYPE":"PAYLOAD","TLE_LINE2":"2 50181  53.2185  69.9341 0002042  56.1253 303.9933 15.08847995 36828","MEAN_ELEMENT_THEORY":"SGP4","RA_OF_ASC_NODE":"69.9341","MEAN_MOTION_DOT":"0.00002077","ELEMENT_SET_NO":"999","APOAPSIS":"541.134","CLASSIFICATION_TYPE":"U","FILE":"3521435","DECAY_DATE":null,"EPHEMERIS_TYPE":"0","SEMIMAJOR_AXIS":"6917.856"},{"COUNTRY_CODE":"US","PERIOD":"95.437","CENTER_NAME":"EARTH","LAUNCH_DATE":"2021-12-18","SITE":"AFWTR","BSTAR":"0.00005557700000","PERIAPSIS":"538.222","INCLINATION":"53.2186","RCS_SIZE":"LARGE","ECCENTRICITY":"0.00021740","NORAD_CAT_ID":"50182","REF_FRAME":"TEME","GP_ID":"208863230","OBJECT_ID":"2021-125AC","REV_AT_EPOCH":"3690","MEAN_MOTION":"15.08846233","EPOCH":"2022-07-25T15:34:58.376064","MEAN_MOTION_DDOT":"0.0000000000000","TIME_SYSTEM":"UTC","ARG_OF_PERICENTER":"53.6440","OBJECT_NAME":"STARLINK-3277","TLE_LINE1":"1 50182U 21125AC  22206.64928676  .00000596  00000-0  55577-4 0  9990","TLE_LINE2":"2 50182  53.2186  68.4823 0002174  53.6440 306.4753 15.08846233 36906","OBJECT_TYPE":"PAYLOAD","MEAN_MOTION_DOT":"0.00000596","RA_OF_ASC_NODE":"68.4823","MEAN_ELEMENT_THEORY":"SGP4","MEAN_ANOMALY":"306.4753","EPHEMERIS_TYPE":"0","SEMIMAJOR_AXIS":"6917.861","DECAY_DATE":null,"CLASSIFICATION_TYPE":"U","APOAPSIS":"541.230","ELEMENT_SET_NO":"999","FILE":"3521711"},{"TIME_SYSTEM":"UTC","ARG_OF_PERICENTER":"69.4839","OBJECT_NAME":"STARLINK-3281","TLE_LINE1":"1 50183U 21125AD  22206.71922537 -.00000895  00000-0 -38147-4 0  9997","MEAN_MOTION_DDOT":"0.0000000000000","DECAY_DATE":null,"SEMIMAJOR_AXIS":"6917.920","EPHEMERIS_TYPE":"0","APOAPSIS":"541.636","ELEMENT_SET_NO":"999","CLASSIFICATION_TYPE":"U","FILE":"3521711","OBJECT_TYPE":"PAYLOAD","TLE_LINE2":"2 50183  53.2179  68.1777 0002675  69.4839 290.6441 15.08826948 36928","MEAN_ELEMENT_THEORY":"SGP4","RA_OF_ASC_NODE":"68.1777","MEAN_MOTION_DOT":"-0.00000895","MEAN_ANOMALY":"290.6441","CENTER_NAME":"EARTH","LAUNCH_DATE":"2021-12-18","BSTAR":"-0.00003814700000","SITE":"AFWTR","COUNTRY_CODE":"US","PERIOD":"95.438","GP_ID":"208863982","MEAN_MOTION":"15.08826948","REV_AT_EPOCH":"3692","OBJECT_ID":"2021-125AD","EPOCH":"2022-07-25T17:15:41.071968","PERIAPSIS":"537.935","INCLINATION":"53.2179","ECCENTRICITY":"0.00026750","RCS_SIZE":"LARGE","REF_FRAME":"TEME","NORAD_CAT_ID":"50183"},{"LAUNCH_DATE":"2021-12-18","CENTER_NAME":"EARTH","BSTAR":"-0.00012367000000","SITE":"AFWTR","COUNTRY_CODE":"US","PERIOD":"95.438","GP_ID":"208833124","EPOCH":"2022-07-25T07:53:57.805728","OBJECT_ID":"2021-125AF","MEAN_MOTION":"15.08832027","REV_AT_EPOCH":"3682","PERIAPSIS":"538.153","INCLINATION":"53.2189","NORAD_CAT_ID":"50185","REF_FRAME":"TEME","ECCENTRICITY":"0.00023370","RCS_SIZE":"LARGE","OBJECT_NAME":"STARLINK-3279","ARG_OF_PERICENTER":"50.5832","TIME_SYSTEM":"UTC","TLE_LINE1":"1 50185U 21125AF  22206.32914127 -.00002256  00000-0 -12367-3 0  9990","MEAN_MOTION_DDOT":"0.0000000000000","SEMIMAJOR_AXIS":"6917.905","EPHEMERIS_TYPE":"0","DECAY_DATE":null,"FILE":"3521435","APOAPSIS":"541.386","ELEMENT_SET_NO":"999","CLASSIFICATION_TYPE":"U","MEAN_MOTION_DOT":"-0.00002256","MEAN_ELEMENT_THEORY":"SGP4","RA_OF_ASC_NODE":"69.9259","OBJECT_TYPE":"PAYLOAD","TLE_LINE2":"2 50185  53.2189  69.9259 0002337  50.5832 309.5367 15.08832027 36825","MEAN_ANOMALY":"309.5367"},{"DECAY_DATE":null,"SEMIMAJOR_AXIS":"6917.902","EPHEMERIS_TYPE":"0","APOAPSIS":"541.580","CLASSIFICATION_TYPE":"U","ELEMENT_SET_NO":"999","FILE":"3521435","OBJECT_TYPE":"PAYLOAD","TLE_LINE2":"2 50186  53.2179  79.8487 0002620  58.2830 301.8417 15.08832915 36676","MEAN_ELEMENT_THEORY":"SGP4","RA_OF_ASC_NODE":"79.8487","MEAN_MOTION_DOT":"-0.00002255","MEAN_ANOMALY":"301.8417","TIME_SYSTEM":"UTC","OBJECT_NAME":"STARLINK-3274","ARG_OF_PERICENTER":"58.2830","TLE_LINE1":"1 50186U 21125AG  22206.34293266 -.00002255  00000-0 -12364-3 0  9993","MEAN_MOTION_DDOT":"0.0000000000000","GP_ID":"208832382","REV_AT_EPOCH":"3667","MEAN_MOTION":"15.08832915","OBJECT_ID":"2021-125AG","EPOCH":"2022-07-25T08:13:49.381824","PERIAPSIS":"537.955","INCLINATION":"53.2179","RCS_SIZE":"LARGE","ECCENTRICITY":"0.00026200","REF_FRAME":"TEME","NORAD_CAT_ID":"50186","CENTER_NAME":"EARTH","LAUNCH_DATE":"2021-12-18","BSTAR":"-0.00012364000000","SITE":"AFWTR","COUNTRY_CODE":"US","PERIOD":"95.438"}];
